S-NET B                 
1 43187U 18014H   26194.13631689  .00002849  00000+0  14811-3 0  9996
2 43187  97.5344  98.7534 0006929 287.5249  72.5227 15.16876626462696
S-NET A                 
1 43188U 18014J   26194.32098338  .00002639  00000+0  13730-3 0  9992
2 43188  97.5355  99.1508 0006834 287.9427  72.1061 15.16916349462725
S-NET C                 
1 43189U 18014K   26194.40419973  .00002836  00000+0  14746-3 0  9991
2 43189  97.5372  99.3123 0008143 277.9659  82.0650 15.16869395461283
PAZ                     
1 43215U 18020A   26194.52019247  .00000990  00000+0  50319-4 0  9997
2 43215  97.4454 201.5318 0001695  89.7438 270.3990 15.19154193465004
GOES 17                 
1 43226U 18022A   26194.50947838 -.00000187  00000+0  00000+0 0  9991
2 43226   1.0022  85.2830 0000528  84.7861 215.2345  1.00271287 30686
LKW-4                   
1 43236U 18025A   26194.45050830  .00030822  00000+0  32219-3 0  9995
2 43236  97.6344   7.4271 0003295 188.3277 171.7928 15.64418634464134
ZHUHAI-1 OVS-02         
1 43440U 18040B   26194.47460398  .00004060  00000+0  16355-3 0  9993
2 43440  97.0381 210.1494 0004907 139.6273 220.5331 15.25362904456724
ZHUHAI-1 OHS-02         
1 43441U 18040C   26194.51026425  .00004421  00000+0  17297-3 0  9995
2 43441  97.0360 217.1488 0011077 130.3557 229.8652 15.26252188118299
GAOFEN-6                
1 43484U 18048A   26194.50211755  .00000471  00000+0  75276-4 0  9994
2 43484  98.0966 257.2001 0012154  86.5253 273.7346 14.76383130437273
LUOJIA-1 01             
1 43485U 18048B   26194.54633269  .00000493  00000+0  60499-4 0  9992
2 43485  97.8104 272.3111 0009885  42.2432 317.9544 14.87375984438137
PAKTES 1A               
1 43529U 18056A   26194.50262242  .00001113  00000+0  96429-4 0  9997
2 43529  98.1282 352.1121 0019945  25.1026 335.1161 14.99200626435869
PRSS-1                  
1 43530U 18056B   26194.45409363  .00000064  00000+0  14520-4 0  9996
2 43530  97.7816 261.5953 0001286  84.1239 276.0121 14.82026057432328
HAIYANG-1C              
1 43609U 18068A   26194.47708943  .00000060  00000+0  36779-4 0  9990
2 43609  98.5190 266.4038 0011286  23.3094 336.8600 14.34186306410854
SSTL S1-4               
1 43618U 18071A   26194.50520845  .00000247  00000+0  26753-4 0  9999
2 43618  97.4998  65.0201 0002071  98.0197 262.1260 14.96200631426876
HAIYANG-2B              
1 43655U 18081A   26194.49455517  .00000162  00000+0  20088-3 0  9992
2 43655  99.3288 202.8537 0000802 148.1511 211.9689 13.79307238388550
CFOSAT                  
1 43662U 18083A   26194.48795449  .00001840  00000+0  97685-4 0  9994
2 43662  97.3616 198.2462 0001892  75.8572 284.2872 15.16529591426426
TEN-KOH                 
1 43677U 18084G   26194.48752161  .00001850  00000+0  14217-3 0  9995
2 43677  98.0755  27.9569 0009943  35.2579 324.9301 15.03040122420115
DIWATA-2B               
1 43678U 18084H   26194.51054928  .00001252  00000+0  10433-3 0  9998
2 43678  98.1218  31.8716 0012925  89.5817 270.6886 15.00559650420168
STARS-AO                
1 43679U 18084J   26193.53129861  .00003470  00000+0  17779-3 0  9993
2 43679  98.0478  49.0667 0003609  85.7607 274.4037 15.17327321421310
AUTCUBE 2               
1 43681U 18084K   26194.53504574  .00002132  00000+0  13461-3 0  9993
2 43681  98.0691  42.1076 0007934 321.0065  39.0589 15.10257806420901
METOP-C                 
1 43689U 18087A   26194.46325816  .00000050  00000+0  42585-4 0  9993
2 43689  98.6631 253.5848 0002216  96.0775 264.0655 14.21518744398561
ES'HAIL 2               
1 43700U 18090A   26194.49483214  .00000140  00000+0  00000+0 0  9992
2 43700   0.0032 113.6818 0002154  45.9089 335.7013  1.00269984 27949
MOHAMMED VI-B           
1 43717U 18095A   26194.46079977  .00000357  00000+0  57802-4 0  9996
2 43717  97.9555 266.4226 0001765  94.5807 265.5605 14.77080641412064
HYSIS                   
1 43719U 18096A   26194.46764640  .00000245  00000+0  40524-4 0  9996
2 43719  97.9837 261.0079 0001847  84.5414 275.6008 14.78666756411303
COSMOS 2530 (RODNIK-S *)
1 43751U 18097A   26194.53835741  .00000018  00000+0  58139-4 0  9991
2 43751  82.5121 205.9262 0019041 342.6885  17.3543 12.42881909345568
COSMOS 2531 (RODNIK-S *)
1 43752U 18097B   26194.47948624 -.00000015  00000+0 -17889-3 0  9995
2 43752  82.5166 207.0300 0016672   2.8014 357.3156 12.42913111345579
COSMOS 2532 (RODNIK-S *)
1 43753U 18097C   26194.50781390  .00000008  00000+0 -12906-4 0  9992
2 43753  82.5111 205.7865 0018104   4.5549 355.5692 12.42910603345540
MINXSS-2                
1 43758U 18099A   26193.75808016  .00031684  00000+0  59117-3 0  9997
2 43758  97.4535 270.8221 0008419 167.9951 192.1502 15.48699812418088
SIRION PATHFINDER-2     
1 43759U 18099B   26193.94648822  .00002956  00000+0  16276-3 0  9995
2 43759  97.4243 242.3930 0008238 199.6407 160.4509 15.14767949416525
AISTECHSAT 2            
1 43768U 18099L   26193.83814772  .00003133  00000+0  16795-3 0  9996
2 43768  97.4282 241.3121 0004358 187.9002 172.2162 15.15700376416167
