OBJECT_NAME,OBJECT_ID,EPOCH,MEAN_MOTION,ECCENTRICITY,INCLINATION,RA_OF_ASC_NODE,ARG_OF_PERICENTER,MEAN_ANOMALY,EPHEMERIS_TYPE,CLASSIFICATION_TYPE,NORAD_CAT_ID,ELEMENT_SET_NO,REV_AT_EPOCH,BSTAR,MEAN_MOTION_DOT,MEAN_MOTION_DDOT
S-NET B,2018-014H,2026-07-13T03:16:17.779296,15.16876626,.00069298,97.5344,98.7534,287.5249,72.5227,0,U,43187,999,46269,.14811181E-3,.2849E-4,0
S-NET A,2018-014J,2026-07-13T07:42:12.964032,15.16916349,.0006834,97.5355,99.1508,287.9427,72.1061,0,U,43188,999,46272,.1373E-3,.2639E-4,0
S-NET C,2018-014K,2026-07-13T09:42:02.856672,15.16869395,.0008143,97.5372,99.3123,277.9659,82.0650,0,U,43189,999,46128,.14746E-3,.2836E-4,0
PAZ,2018-020A,2026-07-13T12:29:04.629408,15.19154193,.0001695,97.4454,201.5318,89.7438,270.3990,0,U,43215,999,46500,.50319E-4,.99E-5,0
GOES 17,2018-022A,2026-07-13T12:13:38.932032,1.00271287,.0000528,1.0022,85.2830,84.7861,215.2345,0,U,43226,999,3068,0,-.187E-5,0
LKW-4,2018-025A,2026-07-13T10:48:43.917120,15.64418634,.0003295,97.6344,7.4271,188.3277,171.7928,0,U,43236,999,46413,.32219E-3,.30822E-3,0
ZHUHAI-1 OVS-02,2018-040B,2026-07-13T11:23:25.783872,15.25362904,.0004907,97.0381,210.1494,139.6273,220.5331,0,U,43440,999,45672,.16355E-3,.406E-4,0
ZHUHAI-1 OHS-02,2018-040C,2026-07-13T12:14:46.831200,15.26252188,.0011077,97.0360,217.1488,130.3557,229.8652,0,U,43441,999,11829,.17297E-3,.4421E-4,0
GAOFEN-6,2018-048A,2026-07-13T12:03:02.956320,14.76383130,.0012154,98.0966,257.2001,86.5253,273.7346,0,U,43484,999,43727,.75276E-4,.471E-5,0
LUOJIA-1 01,2018-048B,2026-07-13T13:06:43.144416,14.87375984,.0009885,97.8104,272.3111,42.2432,317.9544,0,U,43485,999,43813,.60499E-4,.493E-5,0
PAKTES 1A,2018-056A,2026-07-13T12:03:46.577088,14.99200626,.0019945,98.1282,352.1121,25.1026,335.1161,0,U,43529,999,43586,.96429E-4,.1113E-4,0
PRSS-1,2018-056B,2026-07-13T10:53:53.689632,14.82026057,.0001286,97.7816,261.5953,84.1239,276.0121,0,U,43530,999,43232,.1452E-4,.64E-6,0
HAIYANG-1C,2018-068A,2026-07-13T11:27:00.526752,14.34186306,.0011286,98.5190,266.4038,23.3094,336.8600,0,U,43609,999,41085,.36779E-4,.6E-6,0
SSTL S1-4,2018-071A,2026-07-13T12:07:30.010080,14.96200631,.0002071,97.4998,65.0201,98.0197,262.1260,0,U,43618,999,42687,.26753E-4,.247E-5,0
HAIYANG-2B,2018-081A,2026-07-13T11:52:09.566688,13.79307238,.0000802,99.3288,202.8537,148.1511,211.9689,0,U,43655,999,38855,.20088E-3,.162E-5,0
CFOSAT,2018-083A,2026-07-13T11:42:39.267936,15.16529591,.0001892,97.3616,198.2462,75.8572,284.2872,0,U,43662,999,42642,.97685E-4,.184E-4,0
TEN-KOH,2018-084G,2026-07-13T11:42:01.867104,15.03040122,.0009943,98.0755,27.9569,35.2579,324.9301,0,U,43677,999,42011,.14217E-3,.185E-4,0
DIWATA-2B,2018-084H,2026-07-13T12:15:11.457792,15.00559650,.0012925,98.1218,31.8716,89.5817,270.6886,0,U,43678,999,42016,.10433E-3,.1252E-4,0
STARS-AO,2018-084J,2026-07-12T12:45:04.199904,15.17327321,.00036091,98.0478,49.0667,85.7607,274.4037,0,U,43679,999,42131,.17779076E-3,.347E-4,0
AUTCUBE 2,2018-084K,2026-07-13T12:50:27.951936,15.10257806,.0007934,98.0691,42.1076,321.0065,39.0589,0,U,43681,999,42090,.13461E-3,.2132E-4,0
METOP-C,2018-087A,2026-07-13T11:07:05.505024,14.21518744,.0002216,98.6631,253.5848,96.0775,264.0655,0,U,43689,999,39856,.42585E-4,.5E-6,0
ES'HAIL 2,2018-090A,2026-07-13T11:52:33.496896,1.00269984,.0002154,0.0032,113.6818,45.9089,335.7013,0,U,43700,999,2794,0,.14E-5,0
MOHAMMED VI-B,2018-095A,2026-07-13T11:03:33.100128,14.77080641,.0001765,97.9555,266.4226,94.5807,265.5605,0,U,43717,999,41206,.57802E-4,.357E-5,0
HYSIS,2018-096A,2026-07-13T11:13:24.648960,14.78666756,.0001847,97.9837,261.0079,84.5414,275.6008,0,U,43719,999,41130,.40524E-4,.245E-5,0
COSMOS 2530 (RODNIK-S 16),2018-097A,2026-07-13T12:55:14.080224,12.42881909,.0019041,82.5121,205.9262,342.6885,17.3543,0,U,43751,999,34556,.58139E-4,.18E-6,0
COSMOS 2531 (RODNIK-S 17),2018-097B,2026-07-13T11:30:27.611136,12.42913111,.0016672,82.5166,207.0300,2.8014,357.3156,0,U,43752,999,34557,-.17889E-3,-.15E-6,0
COSMOS 2532 (RODNIK-S 18),2018-097C,2026-07-13T12:11:15.120960,12.42910603,.0018104,82.5111,205.7865,4.5549,355.5692,0,U,43753,999,34554,-.12906E-4,.8E-7,0
MINXSS-2,2018-099A,2026-07-12T18:11:38.125824,15.48699812,.00084198,97.4535,270.8221,167.9951,192.1502,0,U,43758,999,41808,.59116908E-3,.31684E-3,0
SIRION PATHFINDER-2,2018-099B,2026-07-12T22:42:56.582208,15.14767949,.00082388,97.4243,242.3930,199.6407,160.4509,0,U,43759,999,41652,.16275605E-3,.2956E-4,0
AISTECHSAT 2,2018-099L,2026-07-12T20:06:55.963008,15.15700376,.00043582,97.4282,241.3121,187.9002,172.2162,0,U,43768,999,41616,.16794924E-3,.3133E-4,0
